1 33062U 08031C   19273.80960241 -.00000035 +00000-0 +25603-4 0  9997
2 33062 048.4417 097.0797 0007165 128.3484 310.8518 14.73219542606132
1 33062U 08031C   19274.02501885 -.00000033  00000-0  25898-4 0  9991
2 33062  48.4417  96.0662 0007169 129.2612  13.3352 14.73219634606558
1 33062U 08031C   19274.82919759 -.00000031 +00000-0 +26328-4 0  9999
2 33062 048.4417 092.2823 0007189 132.9009 318.1496 14.73219953606287
1 33062U 08031C   19275.49619150 -.00000027  00000-0  26841-4 0  9990
2 33062  48.4418  89.1440 0007206 135.9202 255.4296 14.73220243606775
1 33062U 08031C   19275.63358563 -.00000031 +00000-0 +26255-4 0  9998
2 33062 048.4418 088.4976 0007214 136.5525 264.0638 14.73220286606408
1 33062U 08031C   19276.72466194 -.00000029  00000-0  26570-4 0  9996
2 33062  48.4419  83.3639 0007251 141.5230 290.3570 14.73220707606954
1 33062U 08031C   19276.87556748 -.00000027 +00000-0 +26841-4 0  9996
2 33062 048.4419 082.6539 0007253 142.1326 010.7306 14.73220766606585
1 33062U 08031C   19277.81453038 -.00000028  00000-0  26722-4 0  9998
2 33062  48.4420  78.2359 0007285 146.3204 310.4134 14.73221115607112
1 33062U 08031C   19277.88656744 -.00000028 +00000-0 +26790-4 0  9999
2 33062 048.4421 077.8970 0007287 146.6178 332.4776 14.73221144606737
1 33062U 08031C   19278.84353062 -.00000027  00000-0  26928-4 0  9995
2 33062  48.4422  73.3943 0007322 150.8699   7.6401 14.73221484607266
1 33062U 08031C   19278.90645253 -.00000023 +00000-0 +27436-4 0  9999
2 33062 048.4422 073.0983 0007323 151.1268 341.3632 14.73221529606885
1 33062U 08031C   19279.85336748 -.00000019 +00000-0 +28089-4 0  9990
2 33062 048.4424 068.6430 0007357 155.2688 323.3024 14.73221898607023
1 33062U 08031C   19279.92547578 -.00000018  00000-0  28300-4 0  9998
2 33062  48.4424  68.3037 0007358 155.5792 345.7321 14.73221936607428
1 33062U 08031C   19280.86943638 -.00000014 +00000-0 +28869-4 0  9996
2 33062 048.4426 063.8624 0007393 159.7086 312.0039 14.73222304607178
1 33062U 08031C   19281.39641987 -.00000020  00000-0  28010-4 0  9992
2 33062  48.4427  61.3829 0007414 162.0326 226.8300 14.73222474607640
1 33062U 08031C   19281.88916889 -.00000020 +00000-0 +28010-4 0  9992
2 33062 048.4428 059.0647 0007436 164.1192 320.1819 14.73222660607326
1 33062U 08031C   19282.41548330 -.00000014  00000-0  28927-4 0  9994
2 33062  48.4429  56.5883 0007459 166.4838 231.4167 14.73222905607791
1 33062U 08031C   19282.84007750 -.00000015 +00000-0 +28742-4 0  9993
2 33062 048.4430 054.5907 0007476 168.2721 323.3119 14.73223053607465
1 33062U 08031C   19283.72270428 -.00000008  00000-0  29775-4 0  9994
2 33062  48.4431  50.4381 0007517 172.1243 324.3140 14.73223451607980
1 33062U 08031C   19283.85877587 -.00000014 +00000-0 +28851-4 0  9998
2 33062 048.4431 049.7979 0007520 172.7129 325.9734 14.73223463607616
1 33062U 08031C   19284.74136184 -.00000017  00000-0  28394-4 0  9993
2 33062  48.4432  45.6454 0007562 176.5957 326.7292 14.73223788608133
1 33062U 08031C   19284.80689670 -.00000012 +00000-0 +29152-4 0  9991
2 33062 048.4432 045.3371 0007562 176.8518 314.3228 14.73223847607759
